NORAD_CAT_ID,OBJECT_NAME,OBJECT_TYPE,EPOCH,MEAN_MOTION,ECCENTRICITY,INCLINATION,RA_OF_ASC_NODE,ARG_OF_PERICENTER,MEAN_ANOMALY,BSTAR,MEAN_MOTION_DOT,MEAN_MOTION_DDOT,TLE_LINE0,TLE_LINE1,TLE_LINE2,SEMIMAJOR_AXIS,PERIOD,APOGEE,PERIGEE,DECAYED
52454.0,STARLINK-3888,PAYLOAD,2024-03-28 02:11:19,15.08798232,0.0001527,53.2201,23.6092,78.0676,282.0487,0.00028792,4.292e-05,0.0,0 STARLINK-3888,1 52454U 22049D   24088.09119257  .00004292  00000-0  28792-3 0  9991,2 52454  53.2201  23.6092 0001527  78.0676 282.0487 15.08798232104849,6918.008,95.44,540.929,538.817,0.0
52454.0,STARLINK-3888,PAYLOAD,2024-03-28 19:40:32,15.08836877,0.00011,53.2193,20.3381,66.3812,293.7296,0.00013294,1.828e-05,0.0,0 STARLINK-3888,1 52454U 22049D   24088.81981926  .00001828  00000-0  13294-3 0  9994,2 52454  53.2193  20.3381 0001100  66.3812 293.7296 15.08836877104950,6917.89,95.438,540.516,538.994,0.0
52454.0,STARLINK-3888,PAYLOAD,2024-03-28 22:51:18,15.08843217,0.0001174,53.2185,19.7448,80.9505,279.162,0.00013609,1.879e-05,0.0,0 STARLINK-3888,1 52454U 22049D   24088.95229490  .00001879  00000-0  13609-3 0  9996,2 52454  53.2185  19.7448 0001174  80.9505 279.1620 15.08843217104819,6917.871,95.437,540.548,538.923,0.0
52454.0,STARLINK-3888,PAYLOAD,2024-03-29 02:02:03,15.08861583,0.000174,53.2192,19.1508,79.8911,280.2278,-6.8693e-06,-3.98e-06,0.0,0 STARLINK-3888,1 52454U 22049D   24089.08476701 -.00000398  00000-0 -68693-5 0  9992,2 52454  53.2192  19.1508 0001740  79.8911 280.2278 15.08861583104992,6917.814,95.436,540.883,538.476,0.0
52454.0,STARLINK-3888,PAYLOAD,2024-03-29 05:12:49,15.08858753,0.0001578,53.2193,18.5533,96.276,263.8412,0.00015542,2.188e-05,0.0,0 STARLINK-3888,1 52454U 22049D   24089.21724372  .00002188  00000-0  15542-3 0  9997,2 52454  53.2193  18.5533 0001578  96.2760 263.8412 15.08858753104855,6917.823,95.436,540.78,538.596,0.0
52454.0,STARLINK-3888,PAYLOAD,2024-03-29 19:31:18,15.08840452,0.0001558,53.219,15.875,109.035,251.0811,0.00035741,5.405e-05,0.0,0 STARLINK-3888,1 52454U 22049D   24089.81340522  .00005405  00000-0  35741-3 0  9992,2 52454  53.2190  15.8750 0001558 109.0350 251.0811 15.08840452105107,6917.879,95.438,540.822,538.666,0.0
52454.0,STARLINK-3888,PAYLOAD,2024-03-29 22:42:04,15.08837438,0.0001471,53.2184,15.2779,120.2772,239.8365,0.00030152,4.514e-05,0.0,0 STARLINK-3888,1 52454U 22049D   24089.94588823  .00004514  00000-0  30152-3 0  9995,2 52454  53.2184  15.2779 0001471 120.2772 239.8365 15.08837438104963,6917.888,95.438,540.771,538.736,0.0
52454.0,STARLINK-3888,PAYLOAD,2024-03-30 11:25:09,15.08848333,0.0001359,53.2197,12.906,90.9429,269.1719,0.00032804,4.938e-05,0.0,0 STARLINK-3888,1 52454U 22049D   24090.47580149  .00004938  00000-0  32804-3 0  9994,2 52454  53.2197  12.9060 0001359  90.9429 269.1719 15.08848333105046,6917.855,95.437,540.66,538.78,0.0
52454.0,STARLINK-3888,PAYLOAD,2024-03-30 22:32:52,15.08834799,0.0001336,53.2193,10.8205,92.4869,267.6276,-0.00013595,-2.451e-05,0.0,0 STARLINK-3888,1 52454U 22049D   24090.93949868 -.00002451  00000-0 -13595-3 0  9998,2 52454  53.2193  10.8205 0001336  92.4869 267.6276 15.08834799105110,6917.896,95.438,540.686,538.837,0.0
52454.0,STARLINK-3888,PAYLOAD,2024-03-31 04:54:24,15.08845659,0.0001406,53.2207,9.6354,85.6716,274.4437,-2.8707e-05,-7.45e-06,0.0,0 STARLINK-3888,1 52454U 22049D   24091.20444908 -.00000745  00000-0 -28707-4 0  9990,2 52454  53.2207   9.6354 0001406  85.6716 274.4437 15.08845659105314,6917.863,95.437,540.701,538.755,0.0
52454.0,STARLINK-3888,PAYLOAD,2024-03-31 11:15:56,15.08856442,0.000142,53.2211,8.4456,84.3398,275.7756,-4.8212e-05,-1.056e-05,0.0,0 STARLINK-3888,1 52454U 22049D   24091.46939934 -.00001056  00000-0 -48212-4 0  9995,2 52454  53.2211   8.4456 0001420  84.3398 275.7756 15.08856442105351,6917.83,95.437,540.677,538.713,0.0
52454.0,STARLINK-3888,PAYLOAD,2024-03-31 22:23:38,15.08841282,0.0001581,53.2196,6.3659,98.5411,261.5761,8.092e-05,1e-05,0.0,0 STARLINK-3888,1 52454U 22049D   24091.93308499  .00001000  00000-0  80920-4 0  9992,2 52454  53.2196   6.3659 0001581  98.5411 261.5761 15.08841282105261,6917.876,95.437,540.835,538.648,0.0
52454.0,STARLINK-3888,PAYLOAD,2024-04-01 01:34:24,15.08843531,0.0001357,53.2213,5.7712,90.1749,269.9399,0.00010204,1.337e-05,0.0,0 STARLINK-3888,1 52454U 22049D   24092.06556267  .00001337  00000-0  10204-3 0  9995,2 52454  53.2213   5.7712 0001357  90.1749 269.9399 15.08843531105445,6917.87,95.437,540.673,538.796,0.0
52454.0,STARLINK-3888,PAYLOAD,2024-04-01 11:06:42,15.08853245,0.0001537,53.2215,3.9867,93.3236,266.7932,6.1834e-05,6.97e-06,0.0,0 STARLINK-3888,1 52454U 22049D   24092.46299558  .00000697  00000-0  61834-4 0  9990,2 52454  53.2215   3.9867 0001537  93.3236 266.7932 15.08853245105502,6917.84,95.437,540.768,538.642,0.0
52454.0,STARLINK-3888,PAYLOAD,2024-04-02 03:00:35,15.0883079,0.0001401,53.2197,1.0103,86.2226,273.8927,2.4005e-06,-2.5e-06,0.0,0 STARLINK-3888,1 52454U 22049D   24093.12541599 -.00000250  00000-0  24005-5 0  9995,2 52454  53.2197   1.0103 0001401  86.2226 273.8927 15.08830790105607,6917.909,95.438,540.743,538.804,0.0
52454.0,STARLINK-3888,PAYLOAD,2024-04-02 10:57:30,15.08846551,0.0001408,53.2201,359.5257,93.1326,266.9827,8.7745e-05,1.109e-05,0.0,0 STARLINK-3888,1 52454U 22049D   24093.45660427  .00001109  00000-0  87745-4 0  9995,2 52454  53.2201 359.5257 0001408  93.1326 266.9827 15.08846551105658,6917.86,95.437,540.699,538.751,0.0
52454.0,STARLINK-3888,PAYLOAD,2024-04-02 23:40:35,15.08848213,6.45e-05,53.2192,357.1451,96.9099,263.1966,0.0001417,1.969e-05,0.0,0 STARLINK-3888,1 52454U 22049D   24093.98651730  .00001969  00000-0  14170-3 0  9995,2 52454  53.2192 357.1451 0000645  96.9099 263.1966 15.08848213105578,6917.855,95.437,540.166,539.274,0.0
52454.0,STARLINK-3888,PAYLOAD,2024-04-03 02:51:19,15.0887128,0.0001351,53.2192,356.5514,100.7071,259.4073,0.00024282,3.582e-05,0.0,0 STARLINK-3888,1 52454U 22049D   24094.11898013  .00003582  00000-0  24282-3 0  9996,2 52454  53.2192 356.5514 0001351 100.7071 259.4073 15.08871280105757,6917.785,95.436,540.584,538.715,0.0
52454.0,STARLINK-3888,PAYLOAD,2024-04-03 10:48:15,15.08874579,0.0001548,53.2184,355.0645,75.659,284.4574,0.00042393,6.472e-05,0.0,0 STARLINK-3888,1 52454U 22049D   24094.45017927  .00006472  00000-0  42393-3 0  9994,2 52454  53.2184 355.0645 0001548  75.6590 284.4574 15.08874579105647,6917.775,95.435,540.711,538.569,0.0
52454.0,STARLINK-3888,PAYLOAD,2024-04-03 17:09:50,15.08828301,0.0002004,53.2184,353.8754,81.4896,278.6323,4.89e-05,4.9e-06,0.0,0 STARLINK-3888,1 52454U 22049D   24094.71516505  .00000490  00000-0  48900-4 0  9994,2 52454  53.2184 353.8754 0002004  81.4896 278.6323 15.08828301105847,6917.916,95.438,541.167,538.395,0.0
52454.0,STARLINK-3888,PAYLOAD,2024-04-04 10:39:04,15.0882954,0.0001507,53.2176,350.603,86.8989,273.2175,-0.00021372,-3.687e-05,0.0,0 STARLINK-3888,1 52454U 22049D   24095.44380427 -.00003687  00000-0 -21372-3 0  9993,2 52454  53.2176 350.6030 0001507  86.8989 273.2175 15.08829540105795,6917.912,95.438,540.82,538.735,0.0
52454.0,STARLINK-3888,PAYLOAD,2024-04-04 20:11:23,15.08835806,0.0001529,53.2173,348.8192,84.6529,275.4637,-3.7641e-05,-8.87e-06,0.0,0 STARLINK-3888,1 52454U 22049D   24095.84124451 -.00000887  00000-0 -37641-4 0  9996,2 52454  53.2173 348.8192 0001529  84.6529 275.4637 15.08835806106015,6917.893,95.438,540.816,538.7,0.0
52454.0,STARLINK-3888,PAYLOAD,2024-04-04 23:22:10,15.08832405,0.0001601,53.2176,348.224,83.1016,277.0158,0.00058557,9.042e-05,0.0,0 STARLINK-3888,1 52454U 22049D   24095.97372941  .00009042  00000-0  58557-3 0  9997,2 52454  53.2176 348.2240 0001601  83.1016 277.0158 15.08832405105873,6917.904,95.438,540.876,538.661,0.0
52454.0,STARLINK-3888,PAYLOAD,2024-04-05 02:32:55,15.08889958,0.0001376,53.2181,347.631,78.2882,281.8264,0.0027426,0.00043691,0.0,0 STARLINK-3888,1 52454U 22049D   24096.10619803  .00043691  00000-0  27426-2 0  9992,2 52454  53.2181 347.6310 0001376  78.2882 281.8264 15.08889958106052,6917.728,95.434,540.545,538.641,0.0
52454.0,STARLINK-3888,PAYLOAD,2024-04-05 20:02:10,15.08834151,0.0001484,53.2175,344.3582,72.2629,287.8525,-0.00065849,-0.00010751,0.0,0 STARLINK-3888,1 52454U 22049D   24096.83483827 -.00010751  00000-0 -65849-3 0  9992,2 52454  53.2175 344.3582 0001484  72.2629 287.8525 15.08834151106166,6917.898,95.438,540.79,538.737,0.0
52454.0,STARLINK-3888,PAYLOAD,2024-04-05 21:37:33,15.08833407,0.0002037,53.2174,344.0607,31.8797,328.2318,-0.00044214,-7.317e-05,0.0,0 STARLINK-3888,1 52454U 22049D   24096.90108140 -.00007317  00000-0 -44214-3 0  9999,2 52454  53.2174 344.0607 0002037  31.8797 328.2318 15.08833407106019,6917.901,95.438,541.175,538.356,0.0
52454.0,STARLINK-3888,PAYLOAD,2024-04-06 02:23:42,15.08833437,0.000142,53.2179,343.1693,71.2988,288.8158,-0.00037712,-6.284e-05,0.0,0 STARLINK-3888,1 52454U 22049D   24097.09979994 -.00006284  00000-0 -37712-3 0  9990,2 52454  53.2179 343.1693 0001420  71.2988 288.8158 15.08833437106043,6917.9,95.438,540.748,538.783,0.0
52454.0,STARLINK-3888,PAYLOAD,2024-04-06 23:03:44,15.08838041,0.0001453,53.218,339.3036,66.4286,293.6858,0.00085738,0.00013383,0.0,0 STARLINK-3888,1 52454U 22049D   24097.96093003  .00013383  00000-0  85738-3 0  9991,2 52454  53.2180 339.3036 0001453  66.4286 293.6858 15.08838041106177,6917.886,95.438,540.757,538.746,0.0
52454.0,STARLINK-3888,PAYLOAD,2024-04-07 08:36:03,15.0884917,0.0001432,53.2183,337.5206,70.7244,289.3902,0.00082228,0.00012826,0.0,0 STARLINK-3888,1 52454U 22049D   24098.35836822  .00012826  00000-0  82228-3 0  9991,2 52454  53.2183 337.5206 0001432  70.7244 289.3902 15.08849170106232,6917.852,95.437,540.708,538.727,0.0
52454.0,STARLINK-3888,PAYLOAD,2024-04-07 21:19:08,15.08838739,0.0001697,53.2197,335.1472,98.1295,261.9889,0.00014332,1.994e-05,0.0,0 STARLINK-3888,1 52454U 22049D   24098.88829168  .00001994  00000-0  14332-3 0  9999,2 52454  53.2197 335.1472 0001697  98.1295 261.9889 15.08838739106474,6917.884,95.438,540.923,538.575,0.0
